KUIPER-00177            
1 67766U 26030C   26055.15281907  .00021266  00000+0  60923-3 0  9993
2 67766  51.8840 284.3412 0000594  70.9572 289.1478 15.35862711  3014
KUIPER-00178            
1 67767U 26030D   26055.09568046  .00025596  00000+0  75353-3 0  9992
2 67767  51.8846 284.7074 0005494  11.2704 348.8404 15.34884189  3001
KUIPER-00180            
1 67768U 26030E   26055.24025160 -.00031498  00000+0 -97240-3 0  9994
2 67768  51.8812 284.1670 0014620  29.9924 330.1896 15.32673655  3025
KUIPER-00197            
1 67769U 26030F   26055.21930797  .00025837  00000+0  74009-3 0  9999
2 67769  51.8848 284.0362 0001541  67.3323 292.7827 15.35749321  3023
KUIPER-00198            
1 67770U 26030G   26055.22204687  .00024371  00000+0  70663-3 0  9998
2 67770  51.8822 284.0514 0002474  23.5273 336.5826 15.35401143  3023
KUIPER-00199            
1 67771U 26030H   26055.23401609  .00025308  00000+0  77057-3 0  9998
2 67771  51.8821 284.1268 0010086  22.2698 337.8724 15.33793339  3025
KUIPER-00200            
1 67772U 26030J   26055.14973230  .00031800  00000+0  88981-3 0  9995
2 67772  51.8820 284.3211 0002083 161.1189 198.9875 15.36370584  3019
KUIPER-00203            
1 67773U 26030K   26055.23612656  .00023265  00000+0  71544-3 0  9991
2 67773  51.8812 284.1389 0012245  23.6072 336.5473 15.33504554  3027
KUIPER-00205            
1 67774U 26030L   26055.21994890  .00031537  00000+0  90074-3 0  9993
2 67774  51.8825 284.0398 0002280 355.2899   4.8065 15.35733127  3024
KUIPER-00208            
1 67775U 26030M   26055.10943851  .00017640  00000+0  55664-3 0  9998
2 67775  51.8842 284.7969 0014524  22.7163 337.4462 15.32840783  3007
KUIPER-00209            
1 67776U 26030N   26055.10858437  .00100044  00000+0  30898-2 0  9996
2 67776  51.8826 284.7886 0016173  24.8189 335.3571 15.32599863  3009
KUIPER-00213            
1 67777U 26030P   26055.10856782 -.00022508  00000+0 -69176-3 0  9990
2 67777  51.8825 284.7864 0012991  25.9531 334.2103 15.32648269  3006
